API VERSION: 1.2
API SOURCE: NASA/JPL Horizons API



*******************************************************************************
Ephemeris / API_USER Mon Oct 30 14:04:49 2023 Pasadena, USA      / Horizons    
*******************************************************************************
Target body name: Moon (301)                      {source: DE441}
Center body name: Earth (399)                     {source: DE441}
Center-site name: GEOCENTRIC
*******************************************************************************
Start time      : A.D. 2044-Jan-01 00:00:00.0000 UT      
Stop  time      : A.D. 2045-Jan-01 00:00:00.0000 UT      
Step-size       : 60 minutes
*******************************************************************************
Target pole/equ : MOON_ME                         {East-longitude positive}
Target radii    : 1737.4, 1737.4, 1737.4 km       {Equator_a, b, pole_c}       
Center geodetic : 0.0, 0.0, -6378.137             {E-lon(deg),Lat(deg),Alt(km)}
Center cylindric: 0.0, 0.0, 0.0                   {E-lon(deg),Dxy(km),Dz(km)}
Center pole/equ : ITRF93                          {East-longitude positive}
Center radii    : 6378.137, 6378.137, 6356.752 km {Equator_a, b, pole_c}       
Target primary  : Earth
Vis. interferer : MOON (R_eq= 1737.400) km        {source: DE441}
Rel. light bend : Sun                             {source: DE441}
Rel. lght bnd GM: 1.3271E+11 km^3/s^2                                          
Atmos refraction: NO (AIRLESS)
RA format       : HMS
Time format     : CAL 
Calendar mode   : Mixed Julian/Gregorian
EOP file        : eop.231027.p240119                                           
EOP coverage    : DATA-BASED 1962-JAN-20 TO 2023-OCT-27. PREDICTS-> 2024-JAN-18
Units conversion: 1 au= 149597870.700 km, c= 299792.458 km/s, 1 day= 86400.0 s 
Table cut-offs 1: Elevation (-90.0deg=NO ),Airmass (>38.000=NO), Daylight (NO )
Table cut-offs 2: Solar elongation (  0.0,180.0=NO ),Local Hour Angle( 0.0=NO )
Table cut-offs 3: RA/DEC angular rate (     0.0=NO )                           
Table format    : Comma Separated Values (spreadsheet)
***********************************************************************************************************************************************
 Date__(UT)__HR:MN, , , R.A._(ICRF), DEC__(ICRF),      Illu%,  ObsSub-LON, ObsSub-LAT,  SunSub-LON, SunSub-LAT,    NP.ang,  NP.dist,     S-T-O,
***********************************************************************************************************************************************
$$SOE
 2044-Apr-12 00:00, , , 13 00 21.92, -09 05 08.9,   99.78596,    4.326940,   3.234830,    9.094202,   0.904144,   21.1987,  914.861,    5.2984,
 2044-Apr-12 01:00, , , 13 02 17.08, -09 19 43.2,   99.81758,    4.308204,   3.289761,    8.587277,   0.905378,   21.1497,  914.471,    4.8909,
 2044-Apr-12 02:00, , , 13 04 12.32, -09 34 14.5,   99.84553,    4.289138,   3.344369,    8.080352,   0.906608,   21.0991,  914.081,    4.5002,
 2044-Apr-12 03:00, , , 13 06 07.64, -09 48 42.7,   99.86982,    4.269741,   3.398651,    7.573426,   0.907835,   21.0470,  913.691,    4.1309,
 2044-Apr-12 04:00, , , 13 08 03.03, -10 03 07.9,   99.89046,    4.250015,   3.452601,    7.066499,   0.909057,   20.9933,  913.301,    3.7892,
 2044-Apr-12 05:00, , , 13 09 58.52, -10 17 29.9,   99.90745,    4.229959,   3.506216,    6.559572,   0.910275,   20.9380,  912.911,    3.4830,
 2044-Apr-12 06:00, , , 13 11 54.10, -10 31 48.7,   99.92080,    4.209575,   3.559492,    6.052643,   0.911489,   20.8811,  912.521,    3.2222,
 2044-Apr-12 07:00, , , 13 13 49.77, -10 46 04.3,   99.93051,    4.188862,   3.612425,    5.545714,   0.912699,   20.8227,  912.131,    3.0186,
 2044-Apr-12 08:00, , , 13 15 45.54, -11 00 16.5,   99.93661,    4.167821,   3.665010,    5.038784,   0.913904,   20.7627,  911.741,    2.8839,
 2044-Apr-12 09:00, , , 13 17 41.41, -11 14 25.4,   99.93909,    4.146452,   3.717246,    4.531852,   0.915106,   20.7011,  911.351,    2.8278,
 2044-Apr-12 10:00, , , 13 19 37.38, -11 28 30.8,   99.93796,    4.124755,   3.769126,    4.024920,   0.916302,   20.6380,  910.962,    2.8549,
 2044-Apr-12 11:00, , , 13 21 33.46, -11 42 32.7,   99.93323,    4.102732,   3.820648,    3.517986,   0.917495,   20.5733,  910.572,    2.9626,
 2044-Apr-12 12:00, , , 13 23 29.65, -11 56 31.0,   99.92491,    4.080381,   3.871809,    3.011050,   0.918683,   20.5070,  910.183,    3.1425,
 2044-Apr-12 13:00, , , 13 25 25.96, -12 10 25.8,   99.91302,    4.057705,   3.922603,    2.504113,   0.919867,   20.4391,  909.794,    3.3828,
 2044-Apr-12 14:00, , , 13 27 22.38, -12 24 16.8,   99.89755,    4.034703,   3.973028,    1.997175,   0.921047,   20.3696,  909.406,    3.6717,
 2044-Apr-12 15:00, , , 13 29 18.92, -12 38 04.1,   99.87852,    4.011375,   4.023081,    1.490235,   0.922222,   20.2986,  909.018,    3.9984,
 2044-Apr-12 16:00, , , 13 31 15.59, -12 51 47.7,   99.85594,    3.987722,   4.072757,    0.983293,   0.923392,   20.2260,  908.630,    4.3543,
 2044-Apr-12 17:00, , , 13 33 12.38, -13 05 27.4,   99.82982,    3.963745,   4.122053,    0.476349,   0.924558,   20.1519,  908.243,    4.7328,
 2044-Apr-12 18:00, , , 13 35 09.30, -13 19 03.2,   99.80017,    3.939444,   4.170967,  359.969403,   0.925720,   20.0761,  907.857,    5.1286,
 2044-Apr-12 19:00, , , 13 37 06.36, -13 32 35.0,   99.76700,    3.914819,   4.219493,  359.462455,   0.926877,   19.9988,  907.471,    5.5381,
 2044-Apr-12 20:00, , , 13 39 03.55, -13 46 02.8,   99.73032,    3.889870,   4.267630,  358.955506,   0.928029,   19.9199,  907.085,    5.9582,
 2044-Apr-12 21:00, , , 13 41 00.88, -13 59 26.5,   99.69014,    3.864600,   4.315374,  358.448554,   0.929177,   19.8394,  906.701,    6.3868,
 2044-Apr-12 22:00, , , 13 42 58.35, -14 12 46.1,   99.64648,    3.839007,   4.362721,  357.941599,   0.930320,   19.7573,  906.317,    6.8223,
 2044-Apr-12 23:00, , , 13 44 55.96, -14 26 01.5,   99.59934,    3.813092,   4.409669,  357.434643,   0.931459,   19.6737,  905.934,    7.2632,
 2044-Apr-13 00:00, , , 13 46 53.72, -14 39 12.6,   99.54874,    3.786857,   4.456214,  356.927683,   0.932592,   19.5885,  905.552,    7.7086,
 2044-Apr-13 01:00, , , 13 48 51.63, -14 52 19.5,   99.49469,    3.760300,   4.502354,  356.420722,   0.933722,   19.5017,  905.171,    8.1577,
 2044-Apr-13 02:00, , , 13 50 49.69, -15 05 22.0,   99.43720,    3.733424,   4.548085,  355.913757,   0.934846,   19.4133,  904.790,    8.6099,
 2044-Apr-13 03:00, , , 13 52 47.90, -15 18 20.0,   99.37628,    3.706229,   4.593404,  355.406790,   0.935966,   19.3234,  904.411,    9.0646,
 2044-Apr-13 04:00, , , 13 54 46.27, -15 31 13.6,   99.31194,    3.678715,   4.638308,  354.899820,   0.937081,   19.2319,  904.033,    9.5214,
 2044-Apr-13 05:00, , , 13 56 44.80, -15 44 02.7,   99.24421,    3.650882,   4.682795,  354.392848,   0.938191,   19.1388,  903.656,    9.9800,
 2044-Apr-13 06:00, , , 13 58 43.50, -15 56 47.2,   99.17308,    3.622732,   4.726862,  353.885872,   0.939296,   19.0441,  903.280,   10.4400,
 2044-Apr-13 07:00, , , 14 00 42.35, -16 09 27.1,   99.09858,    3.594265,   4.770506,  353.378893,   0.940396,   18.9478,  902.905,   10.9013,
 2044-Apr-13 08:00, , , 14 02 41.38, -16 22 02.2,   99.02072,    3.565482,   4.813723,  352.871911,   0.941492,   18.8500,  902.531,   11.3637,
 2044-Apr-13 09:00, , , 14 04 40.57, -16 34 32.6,   98.93950,    3.536383,   4.856513,  352.364926,   0.942583,   18.7506,  902.159,   11.8269,
 2044-Apr-13 10:00, , , 14 06 39.93, -16 46 58.2,   98.85496,    3.506970,   4.898871,  351.857937,   0.943669,   18.6497,  901.788,   12.2908,
 2044-Apr-13 11:00, , , 14 08 39.46, -16 59 19.0,   98.76709,    3.477242,   4.940795,  351.350946,   0.944750,   18.5472,  901.418,   12.7554,
 2044-Apr-13 12:00, , , 14 10 39.17, -17 11 34.8,   98.67591,    3.447201,   4.982283,  350.843950,   0.945826,   18.4431,  901.050,   13.2205,
 2044-Apr-13 13:00, , , 14 12 39.06, -17 23 45.6,   98.58144,    3.416847,   5.023333,  350.336951,   0.946897,   18.3374,  900.683,   13.6860,
 2044-Apr-13 14:00, , , 14 14 39.13, -17 35 51.5,   98.48368,    3.386182,   5.063941,  349.829949,   0.947963,   18.2302,  900.318,   14.1518,
 2044-Apr-13 15:00, , , 14 16 39.37, -17 47 52.2,   98.38267,    3.355205,   5.104105,  349.322943,   0.949024,   18.1214,  899.955,   14.6179,
 2044-Apr-13 16:00, , , 14 18 39.80, -17 59 47.9,   98.27840,    3.323918,   5.143823,  348.815933,   0.950080,   18.0111,  899.593,   15.0843,
 2044-Apr-13 17:00, , , 14 20 40.41, -18 11 38.3,   98.17090,    3.292322,   5.183093,  348.308919,   0.951131,   17.8992,  899.233,   15.5508,
 2044-Apr-13 18:00, , , 14 22 41.21, -18 23 23.5,   98.06017,    3.260417,   5.221913,  347.801901,   0.952177,   17.7857,  898.874,   16.0174,
 2044-Apr-13 19:00, , , 14 24 42.20, -18 35 03.5,   97.94624,    3.228205,   5.260280,  347.294879,   0.953219,   17.6707,  898.518,   16.4840,
 2044-Apr-13 20:00, , , 14 26 43.37, -18 46 38.0,   97.82912,    3.195686,   5.298191,  346.787853,   0.954255,   17.5541,  898.163,   16.9508,
 2044-Apr-13 21:00, , , 14 28 44.74, -18 58 07.2,   97.70882,    3.162861,   5.335646,  346.280823,   0.955286,   17.4360,  897.810,   17.4175,
 2044-Apr-13 22:00, , , 14 30 46.29, -19 09 30.9,   97.58536,    3.129731,   5.372641,  345.773788,   0.956312,   17.3164,  897.459,   17.8842,
 2044-Apr-13 23:00, , , 14 32 48.05, -19 20 49.2,   97.45875,    3.096298,   5.409176,  345.266750,   0.957333,   17.1952,  897.110,   18.3508,
 2044-Apr-14 00:00, , , 14 34 49.99, -19 32 01.8,   97.32902,    3.062562,   5.445247,  344.759706,   0.958348,   17.0725,  896.763,   18.8174,
 2044-Apr-14 01:00, , , 14 36 52.13, -19 43 08.9,   97.19617,    3.028524,   5.480853,  344.252659,   0.959359,   16.9482,  896.418,   19.2839,
 2044-Apr-14 02:00, , , 14 38 54.47, -19 54 10.3,   97.06023,    2.994185,   5.515992,  343.745606,   0.960365,   16.8225,  896.076,   19.7503,
